{"type": "FeatureCollection", "features": [ {"type": "Feature", "properties": {"norad_id": 66489, "name": "STARLINK-35696", "group": "last-30-days", "lat": 31.995989926819046, "lon": -170.26793442448331, "alt_km": 410.7680953549134, "timestamp": "2025-12-08T21:31:03.446835+00:00", "meta": {"OBJECT_NAME": "STARLINK-35696", "OBJECT_ID": "2025-263E", "EPOCH": "2025-12-08T14:00:01.999872", "MEAN_MOTION": 15.50605981, "ECCENTRICITY": 0.00016393, "INCLINATION": 43.0002, "RA_OF_ASC_NODE": 149.4619, "ARG_OF_PERICENTER": 277.7517, "MEAN_ANOMALY": 182.8267, "EPHEMERIS_TYPE": 0, "CLASSIFICATION_TYPE": "U", "NORAD_CAT_ID": 66489, "ELEMENT_SET_NO": 999, "REV_AT_EPOCH": 496, "BSTAR": -0.0015620633, "MEAN_MOTION_DOT": -0.00091012, "MEAN_MOTION_DDOT": 0}, "tle": {"line1": "1 66489U 25263E   25342.58335648 -.00091012  00000+0 -15621-2 0  9990", "line2": "2 66489  43.0002 149.4619 0001639 277.7517 182.8267 15.50605981  4966"}}, "geometry": {"type": "Point", "coordinates": [-170.26793442448331, 31.995989926819046]}}, {"type": "Feature", "properties": {"norad_id": 66490, "name": "STARLINK-35693", "group": "last-30-days", "lat": 32.94900222903764, "lon": -168.3051542847043, "alt_km": 410.5423154879154, "timestamp": "2025-12-08T21:31:03.446846+00:00", "meta": {"OBJECT_NAME": "STARLINK-35693", "OBJECT_ID": "2025-263F", "EPOCH": "2025-12-08T14:00:01.999872", "MEAN_MOTION": 15.50602624, "ECCENTRICITY": 0.00015652, "INCLINATION": 43.0002, "RA_OF_ASC_NODE": 149.457, "ARG_OF_PERICENTER": 281.5723, "MEAN_ANOMALY": 180.9181, "EPHEMERIS_TYPE": 0, "CLASSIFICATION_TYPE": "U", "NORAD_CAT_ID": 66490, "ELEMENT_SET_NO": 999, "REV_AT_EPOCH": 496, "BSTAR": -0.0013728524, "MEAN_MOTION_DOT": -0.00080129, "MEAN_MOTION_DDOT": 0}, "tle": {"line1": "1 66490U 25263F   25342.58335648 -.00080129  00000+0 -13729-2 0  9996", "line2": "2 66490  43.0002 149.4570 0001565 281.5723 180.9181 15.50602624  4969"}}, "geometry": {"type": "Point", "coordinates": [-168.3051542847043, 32.94900222903764]}}, {"type": "Feature", "properties": {"norad_id": 66491, "name": "STARLINK-35663", "group": "last-30-days", "lat": 34.76484638633985, "lon": -164.2367567602607, "alt_km": 410.4504397511828, "timestamp": "2025-12-08T21:31:03.446856+00:00", "meta": {"OBJECT_NAME": "STARLINK-35663", "OBJECT_ID": "2025-263G", "EPOCH": "2025-12-08T14:00:01.999872", "MEAN_MOTION": 15.50599725, "ECCENTRICITY": 0.00017003, "INCLINATION": 42.9999, "RA_OF_ASC_NODE": 149.4473, "ARG_OF_PERICENTER": 276.6091, "MEAN_ANOMALY": 189.7238, "EPHEMERIS_TYPE": 0, "CLASSIFICATION_TYPE": "U", "NORAD_CAT_ID": 66491, "ELEMENT_SET_NO": 999, "REV_AT_EPOCH": 496, "BSTAR": -0.0014093683, "MEAN_MOTION_DOT": -0.00082222, "MEAN_MOTION_DDOT": 0}, "tle": {"line1": "1 66491U 25263G   25342.58335648 -.00082222  00000+0 -14094-2 0  9999", "line2": "2 66491  42.9999 149.4473 0001700 276.6091 189.7238 15.50599725  4966"}}, "geometry": {"type": "Point", "coordinates": [-164.2367567602607, 34.76484638633985]}}, {"type": "Feature", "properties": {"norad_id": 66492, "name": "STARLINK-35673", "group": "last-30-days", "lat": 35.62203283379578, "lon": -162.13383852444406, "alt_km": 410.1826423058046, "timestamp": "2025-12-08T21:31:03.446869+00:00", "meta": {"OBJECT_NAME": "STARLINK-35673", "OBJECT_ID": "2025-263H", "EPOCH": "2025-12-08T14:00:01.999872", "MEAN_MOTION": 15.50587799, "ECCENTRICITY": 0.00017744, "INCLINATION": 43.0001, "RA_OF_ASC_NODE": 149.4424, "ARG_OF_PERICENTER": 282.356, "MEAN_ANOMALY": 185.8836, "EPHEMERIS_TYPE": 0, "CLASSIFICATION_TYPE": "U", "NORAD_CAT_ID": 66492, "ELEMENT_SET_NO": 999, "REV_AT_EPOCH": 496, "BSTAR": -0.00010986555, "MEAN_MOTION_DOT": -6.784e-05, "MEAN_MOTION_DDOT": 0}, "tle": {"line1": "1 66492U 25263H   25342.58335648 -.00006784  00000+0 -10987-3 0  9997", "line2": "2 66492  43.0001 149.4424 0001774 282.3560 185.8836 15.50587799  4964"}}, "geometry": {"type": "Point", "coordinates": [-162.13383852444406, 35.62203283379578]}}, {"type": "Feature", "properties": {"norad_id": 66493, "name": "STARLINK-35597", "group": "last-30-days", "lat": 36.436324751986156, "lon": -160.00011316103624, "alt_km": 410.31432693733313, "timestamp": "2025-12-08T21:31:03.446880+00:00", "meta": {"OBJECT_NAME": "STARLINK-35597", "OBJECT_ID": "2025-263J", "EPOCH": "2025-12-08T14:00:01.999872", "MEAN_MOTION": 15.50603843, "ECCENTRICITY": 0.00015449, "INCLINATION": 43, "RA_OF_ASC_NODE": 149.4375, "ARG_OF_PERICENTER": 260.6661, "MEAN_ANOMALY": 209.5046, "EPHEMERIS_TYPE": 0, "CLASSIFICATION_TYPE": "U", "NORAD_CAT_ID": 66493, "ELEMENT_SET_NO": 999, "REV_AT_EPOCH": 496, "BSTAR": -0.0016617128, "MEAN_MOTION_DOT": -0.00096718, "MEAN_MOTION_DDOT": 0}, "tle": {"line1": "1 66493U 25263J   25342.58335648 -.00096718  00000+0 -16617-2 0  9999", "line2": "2 66493  43.0000 149.4375 0001544 260.6661 209.5046 15.50603843  4961"}}, "geometry": {"type": "Point", "coordinates": [-160.00011316103624, 36.436324751986156]}}, {"type": "Feature", "properties": {"norad_id": 66494, "name": "STARLINK-35689", "group": "last-30-days", "lat": 33.87295790160337, "lon": -166.29490119677305, "alt_km": 410.55116937804996, "timestamp": "2025-12-08T21:31:03.446890+00:00", "meta": {"OBJECT_NAME": "STARLINK-35689", "OBJECT_ID": "2025-263K", "EPOCH": "2025-12-08T14:00:01.999872", "MEAN_MOTION": 15.50597818, "ECCENTRICITY": 0.00014526, "INCLINATION": 43.0002, "RA_OF_ASC_NODE": 149.4519, "ARG_OF_PERICENTER": 266.3796, "MEAN_ANOMALY": 198.0367, "EPHEMERIS_TYPE": 0, "CLASSIFICATION_TYPE": "U", "NORAD_CAT_ID": 66494, "ELEMENT_SET_NO": 999, "REV_AT_EPOCH": 496, "BSTAR": -0.0013132438, "MEAN_MOTION_DOT": -0.00076684, "MEAN_MOTION_DDOT": 0}, "tle": {"line1": "1 66494U 25263K   25342.58335648 -.00076684  00000+0 -13132-2 0  9999", "line2": "2 66494  43.0002 149.4519 0001452 266.3796 198.0367 15.50597818  4966"}}, "geometry": {"type": "Point", "coordinates": [-166.29490119677305, 33.87295790160337]}}, {"type": "Feature", "properties": {"norad_id": 66495, "name": "STARLINK-35832", "group": "last-30-days", "lat": 37.21320202240577, "lon": -157.8179782083887, "alt_km": 409.9612938295313, "timestamp": "2025-12-08T21:31:03.446903+00:00", "meta": {"OBJECT_NAME": "STARLINK-35832", "OBJECT_ID": "2025-263L", "EPOCH": "2025-12-08T14:00:01.999872", "MEAN_MOTION": 15.50589575, "ECCENTRICITY": 0.00016486, "INCLINATION": 43.0001, "RA_OF_ASC_NODE": 149.4329, "ARG_OF_PERICENTER": 285.1374, "MEAN_ANOMALY": 186.9383, "EPHEMERIS_TYPE": 0, "CLASSIFICATION_TYPE": "U", "NORAD_CAT_ID": 66495, "ELEMENT_SET_NO": 999, "REV_AT_EPOCH": 496, "BSTAR": -0.00083757319, "MEAN_MOTION_DOT": -0.00049189, "MEAN_MOTION_DDOT": 0}, "tle": {"line1": "1 66495U 25263L   25342.58335648 -.00049189  00000+0 -83757-3 0  9991", "line2": "2 66495  43.0001 149.4329 0001648 285.1374 186.9383 15.50589575  4968"}}, "geometry": {"type": "Point", "coordinates": [-157.8179782083887, 37.21320202240577]}}, {"type": "Feature", "properties": {"norad_id": 66496, "name": "STARLINK-35909", "group": "last-30-days", "lat": 37.9511700379879, "lon": -155.58550109424476, "alt_km": 410.07564181903217, "timestamp": "2025-12-08T21:31:03.446913+00:00", "meta": {"OBJECT_NAME": "STARLINK-35909", "OBJECT_ID": "2025-263M", "EPOCH": "2025-12-08T14:00:01.999872", "MEAN_MOTION": 15.50586295, "ECCENTRICITY": 0.00015601, "INCLINATION": 43.0001, "RA_OF_ASC_NODE": 149.4274, "ARG_OF_PERICENTER": 263.7456, "MEAN_ANOMALY": 210.2643, "EPHEMERIS_TYPE": 0, "CLASSIFICATION_TYPE": "U", "NORAD_CAT_ID": 66496, "ELEMENT_SET_NO": 999, "REV_AT_EPOCH": 496, "BSTAR": -0.0010921512, "MEAN_MOTION_DOT": -0.00063909, "MEAN_MOTION_DDOT": 0}, "tle": {"line1": "1 66496U 25263M   25342.58335648 -.00063909  00000+0 -10922-2 0  9991", "line2": "2 66496  43.0001 149.4274 0001560 263.7456 210.2643 15.50586295  4960"}}, "geometry": {"type": "Point", "coordinates": [-155.58550109424476, 37.9511700379879]}}, {"type": "Feature", "properties": {"norad_id": 66497, "name": "STARLINK-35899", "group": "last-30-days", "lat": 38.64625846649666, "lon": -153.30730000552046, "alt_km": 409.91679238826055, "timestamp": "2025-12-08T21:31:03.446924+00:00", "meta": {"OBJECT_NAME": "STARLINK-35899", "OBJECT_ID": "2025-263N", "EPOCH": "2025-12-08T14:00:01.999872", "MEAN_MOTION": 15.5060258, "ECCENTRICITY": 0.00017171, "INCLINATION": 43.0001, "RA_OF_ASC_NODE": 149.4224, "ARG_OF_PERICENTER": 279.7539, "MEAN_ANOMALY": 196.1586, "EPHEMERIS_TYPE": 0, "CLASSIFICATION_TYPE": "U", "NORAD_CAT_ID": 66497, "ELEMENT_SET_NO": 999, "REV_AT_EPOCH": 496, "BSTAR": -0.0014080881, "MEAN_MOTION_DOT": -0.00082157, "MEAN_MOTION_DDOT": 0}, "tle": {"line1": "1 66497U 25263N   25342.58335648 -.00082157  00000+0 -14081-2 0  9998", "line2": "2 66497  43.0001 149.4224 0001717 279.7539 196.1586 15.50602580  4963"}}, "geometry": {"type": "Point", "coordinates": [-153.30730000552046, 38.64625846649666]}}, {"type": "Feature", "properties": {"norad_id": 66498, "name": "STARLINK-35907", "group": "last-30-days", "lat": 39.29445956915136, "lon": -150.99230990076003, "alt_km": 409.6731944229796, "timestamp": "2025-12-08T21:31:03.446934+00:00", "meta": {"OBJECT_NAME": "STARLINK-35907", "OBJECT_ID": "2025-263P", "EPOCH": "2025-12-08T14:00:01.999872", "MEAN_MOTION": 15.50585531, "ECCENTRICITY": 0.00013617, "INCLINATION": 42.9999, "RA_OF_ASC_NODE": 149.4164, "ARG_OF_PERICENTER": 264.5674, "MEAN_ANOMALY": 213.2639, "EPHEMERIS_TYPE": 0, "CLASSIFICATION_TYPE": "U", "NORAD_CAT_ID": 66498, "ELEMENT_SET_NO": 999, "REV_AT_EPOCH": 496, "BSTAR": -0.00035531135, "MEAN_MOTION_DOT": -0.00021134, "MEAN_MOTION_DDOT": 0}, "tle": {"line1": "1 66498U 25263P   25342.58335648 -.00021134  00000+0 -35531-3 0  9991", "line2": "2 66498  42.9999 149.4164 0001361 264.5674 213.2639 15.50585531  4964"}}, "geometry": {"type": "Point", "coordinates": [-150.99230990076003, 39.29445956915136]}}]}